[{"OBJECT_NAME":"STARLINK-4081","OBJECT_ID":"2022-053E","EPOCH":"2026-03-09T22:51:36.665280","MEAN_MOTION":15.0884594,"ECCENTRICITY":0.00012385,"INCLINATION":53.2172,"RA_OF_ASC_NODE":152.9403,"ARG_OF_PERICENTER":88.7615,"MEAN_ANOMALY":271.3519,"EPHEMERIS_TYPE":0,"CLASSIFICATION_TYPE":"U","NORAD_CAT_ID":52660,"ELEMENT_SET_NO":999,"REV_AT_EPOCH":21115,"BSTAR":-1.3811053e-5,"MEAN_MOTION_DOT":-5.08e-6,"MEAN_MOTION_DDOT":0},{"OBJECT_NAME":"CZ-4B DEB","OBJECT_ID":"2008-053M","EPOCH":"2026-03-05T07:18:48.921696","MEAN_MOTION":15.08195439,"ECCENTRICITY":0.0017401,"INCLINATION":97.8281,"RA_OF_ASC_NODE":90.6528,"ARG_OF_PERICENTER":258.7901,"MEAN_ANOMALY":101.1371,"EPHEMERIS_TYPE":0,"CLASSIFICATION_TYPE":"U","NORAD_CAT_ID":44593,"ELEMENT_SET_NO":999,"REV_AT_EPOCH":67199,"BSTAR":0.00019653,"MEAN_MOTION_DOT":2.982e-5,"MEAN_MOTION_DDOT":0}]
